CTC2_L_00353001-01
1 78643U 26443FD  26070.40846065  .00000000  00000+0  00000-0 0  9994
2 78643  45.0000   0.0000 0000000   0.0000   0.0000 13.29142335    13
CTC2_L_00353001-02
1 78644U 24598CQ  26070.40846065  .00000000  00000+0  00000-0 0  9994
2 78644  45.0000   0.0000 0000000   0.0000  90.0000 13.29142335    13
CTC2_L_00353001-03
1 78645U 23033NS  26070.40846065  .00000000  00000+0  00000-0 0  9998
2 78645  45.0000   0.0000 0000000   0.0000 180.0000 13.29142335    14
CTC2_L_00353001-04
1 78646U 26070OW  26070.40846065  .00000000  00000+0  00000-0 0  9993
2 78646  45.0000   0.0000 0000000   0.0000 270.0000 13.29142335    15
CTC2_L_00353002-01
1 78647U 23422VF  26070.40846065  .00000000  00000+0  00000-0 0  9992
2 78647  45.0000  12.0000 0000000   0.0000  12.0000 13.29142335    13
CTC2_L_00353002-02
1 78648U 23583GV  26070.40846065  .00000000  00000+0  00000-0 0  9991
2 78648  45.0000  12.0000 0000000   0.0000 102.0000 13.29142335    14
CTC2_L_00353002-03
1 78649U 26530HY  26070.40846065  .00000000  00000+0  00000-0 0  9997
2 78649  45.0000  12.0000 0000000   0.0000 192.0000 13.29142335    14
CTC2_L_00353002-04
1 78650U 25366LS  26070.40846065  .00000000  00000+0  00000-0 0  9995
2 78650  45.0000  12.0000 0000000   0.0000 282.0000 13.29142335    16
CTC2_L_00353003-01
1 78651U 22664WM  26070.40846065  .00000000  00000+0  00000-0 0  9994
2 78651  45.0000  24.0000 0000000   0.0000  24.0000 13.29142335    14
CTC2_L_00353003-02
1 78652U 24957NW  26070.40846065  .00000000  00000+0  00000-0 0  9992
2 78652  45.0000  24.0000 0000000   0.0000 114.0000 13.29142335    15
CTC2_L_00353003-03
1 78653U 26421RE  26070.40846065  .00000000  00000+0  00000-0 0  9991
2 78653  45.0000  24.0000 0000000   0.0000 204.0000 13.29142335    16
CTC2_L_00353003-04
1 78654U 26698HC  26070.40846065  .00000000  00000+0  00000-0 0  9998
2 78654  45.0000  24.0000 0000000   0.0000 294.0000 13.29142335    16
CTC2_L_00353004-01
1 78655U 23345QQ  26070.40846065  .00000000  00000+0  00000-0 0  9995
2 78655  45.0000  36.0000 0000000   0.0000  36.0000 13.29142335    14
CTC2_L_00353004-02
1 78656U 23077YU  26070.40846065  .00000000  00000+0  00000-0 0  9998
2 78656  45.0000  36.0000 0000000   0.0000 126.0000 13.29142335    15
CTC2_L_00353004-03
1 78657U 23589ZD  26070.40846065  .00000000  00000+0  00000-0 0  9997
2 78657  45.0000  36.0000 0000000   0.0000 216.0000 13.29142335    16
CTC2_L_00353004-04
1 78658U 22973CF  26070.40846065  .00000000  00000+0  00000-0 0  9994
2 78658  45.0000  36.0000 0000000   0.0000 306.0000 13.29142335    17
CTC2_L_00353005-01
1 78659U 26536EW  26070.40846065  .00000000  00000+0  00000-0 0  9994
2 78659  45.0000  48.0000 0000000   0.0000  48.0000 13.29142335    14
CTC2_L_00353005-02
1 78660U 23154ZB  26070.40846065  .00000000  00000+0  00000-0 0  9999
2 78660  45.0000  48.0000 0000000   0.0000 138.0000 13.29142335    16
CTC2_L_00353005-03
1 78661U 25173SC  26070.40846065  .00000000  00000+0  00000-0 0  9993
2 78661  45.0000  48.0000 0000000   0.0000 228.0000 13.29142335    17
CTC2_L_00353005-04
1 78662U 25382LS  26070.40846065  .00000000  00000+0  00000-0 0  9996
2 78662  45.0000  48.0000 0000000   0.0000 318.0000 13.29142335    18
CTC2_L_00353006-01
1 78663U 24334DY  26070.40846065  .00000000  00000+0  00000-0 0  9993
2 78663  45.0000  60.0000 0000000   0.0000  60.0000 13.29142335    17
CTC2_L_00353006-02
1 78664U 24799IS  26070.40846065  .00000000  00000+0  00000-0 0  9999
2 78664  45.0000  60.0000 0000000   0.0000 150.0000 13.29142335    18
CTC2_L_00353006-03
1 78665U 24655SN  26070.40846065  .00000000  00000+0  00000-0 0  9991
2 78665  45.0000  60.0000 0000000   0.0000 240.0000 13.29142335    19
CTC2_L_00353006-04
1 78666U 24428UK  26070.40846065  .00000000  00000+0  00000-0 0  9990
2 78666  45.0000  60.0000 0000000   0.0000 330.0000 13.29142335    10
CTC2_L_00353007-01
1 78667U 22484NE  26070.40846065  .00000000  00000+0  00000-0 0  9991
2 78667  45.0000  72.0000 0000000   0.0000  72.0000 13.29142335    17
CTC2_L_00353007-02
1 78668U 22419JN  26070.40846065  .00000000  00000+0  00000-0 0  9990
2 78668  45.0000  72.0000 0000000   0.0000 162.0000 13.29142335    18
CTC2_L_00353007-03
1 78669U 25480ZC  26070.40846065  .00000000  00000+0  00000-0 0  9992
2 78669  45.0000  72.0000 0000000   0.0000 252.0000 13.29142335    19
CTC2_L_00353007-04
1 78670U 22840AV  26070.40846065  .00000000  00000+0  00000-0 0  9991
2 78670  45.0000  72.0000 0000000   0.0000 342.0000 13.29142335    11
CTC2_L_00353008-01
1 78671U 22054AP  26070.40846065  .00000000  00000+0  00000-0 0  9999
2 78671  45.0000  84.0000 0000000   0.0000  84.0000 13.29142335    18
CTC2_L_00353008-02
1 78672U 23759JP  26070.40846065  .00000000  00000+0  00000-0 0  9993
2 78672  45.0000  84.0000 0000000   0.0000 174.0000 13.29142335    19
CTC2_L_00353008-03
1 78673U 25181MK  26070.40846065  .00000000  00000+0  00000-0 0  9995
2 78673  45.0000  84.0000 0000000   0.0000 264.0000 13.29142335    10
CTC2_L_00353008-04
1 78674U 24730ZN  26070.40846065  .00000000  00000+0  00000-0 0  9995
2 78674  45.0000  84.0000 0000000   0.0000 354.0000 13.29142335    11
CTC2_L_00353009-01
1 78675U 25114YT  26070.40846065  .00000000  00000+0  00000-0 0  9993
2 78675  45.0000  96.0000 0000000   0.0000  96.0000 13.29142335    18
CTC2_L_00353009-02
1 78676U 25780QH  26070.40846065  .00000000  00000+0  00000-0 0  9993
2 78676  45.0000  96.0000 0000000   0.0000 186.0000 13.29142335    19
CTC2_L_00353009-03
1 78677U 24342DE  26070.40846065  .00000000  00000+0  00000-0 0  9997
2 78677  45.0000  96.0000 0000000   0.0000 276.0000 13.29142335    10
CTC2_L_00353009-04
1 78678U 25379JZ  26070.40846065  .00000000  00000+0  00000-0 0  9999
2 78678  45.0000  96.0000 0000000   0.0000   6.0000 13.29142335    12
CTC2_L_00353010-01
1 78679U 24435JE  26070.40846065  .00000000  00000+0  00000-0 0  9992
2 78679  45.0000 108.0000 0000000   0.0000 108.0000 13.29142335    10
CTC2_L_00353010-02
1 78680U 25454AZ  26070.40846065  .00000000  00000+0  00000-0 0  9996
2 78680  45.0000 108.0000 0000000   0.0000 198.0000 13.29142335    11
CTC2_L_00353010-03
1 78681U 22971VV  26070.40846065  .00000000  00000+0  00000-0 0  9998
2 78681  45.0000 108.0000 0000000   0.0000 288.0000 13.29142335    12
CTC2_L_00353010-04
1 78682U 24934HM  26070.40846065  .00000000  00000+0  00000-0 0  9990
2 78682  45.0000 108.0000 0000000   0.0000  18.0000 13.29142335    14
CTC2_L_00353011-01
1 78683U 23577HH  26070.40846065  .00000000  00000+0  00000-0 0  9993
2 78683  45.0000 120.0000 0000000   0.0000 120.0000 13.29142335    13
CTC2_L_00353011-02
1 78684U 24229LE  26070.40846065  .00000000  00000+0  00000-0 0  9999
2 78684  45.0000 120.0000 0000000   0.0000 210.0000 13.29142335    14
CTC2_L_00353011-03
1 78685U 24408OW  26070.40846065  .00000000  00000+0  00000-0 0  9999
2 78685  45.0000 120.0000 0000000   0.0000 300.0000 13.29142335    15
CTC2_L_00353011-04
1 78686U 23212BL  26070.40846065  .00000000  00000+0  00000-0 0  9992
2 78686  45.0000 120.0000 0000000   0.0000  30.0000 13.29142335    16
CTC2_L_00353012-01
1 78687U 24905ZC  26070.40846065  .00000000  00000+0  00000-0 0  9993
2 78687  45.0000 132.0000 0000000   0.0000 132.0000 13.29142335    13
CTC2_L_00353012-02
1 78688U 23669HR  26070.40846065  .00000000  00000+0  00000-0 0  9990
2 78688  45.0000 132.0000 0000000   0.0000 222.0000 13.29142335    14
CTC2_L_00353012-03
1 78689U 26483BK  26070.40846065  .00000000  00000+0  00000-0 0  9998
2 78689  45.0000 132.0000 0000000   0.0000 312.0000 13.29142335    15
CTC2_L_00353012-04
1 78690U 24033KF  26070.40846065  .00000000  00000+0  00000-0 0  9999
2 78690  45.0000 132.0000 0000000   0.0000  42.0000 13.29142335    17
CTC2_L_00353013-01
1 78691U 22104HZ  26070.40846065  .00000000  00000+0  00000-0 0  9997
2 78691  45.0000 144.0000 0000000   0.0000 144.0000 13.29142335    14
CTC2_L_00353013-02
1 78692U 23435RU  26070.40846065  .00000000  00000+0  00000-0 0  9996
2 78692  45.0000 144.0000 0000000   0.0000 234.0000 13.29142335    15
CTC2_L_00353013-03
1 78693U 25181UB  26070.40846065  .00000000  00000+0  00000-0 0  9997
2 78693  45.0000 144.0000 0000000   0.0000 324.0000 13.29142335    16
CTC2_L_00353013-04
1 78694U 23825NQ  26070.40846065  .00000000  00000+0  00000-0 0  9991
2 78694  45.0000 144.0000 0000000   0.0000  54.0000 13.29142335    17
CTC2_L_00353014-01
1 78695U 26250GV  26070.40846065  .00000000  00000+0  00000-0 0  9997
2 78695  45.0000 156.0000 0000000   0.0000 156.0000 13.29142335    14
CTC2_L_00353014-02
1 78696U 25016WB  26070.40846065  .00000000  00000+0  00000-0 0  9997
2 78696  45.0000 156.0000 0000000   0.0000 246.0000 13.29142335    15
CTC2_L_00353014-03
1 78697U 22813MP  26070.40846065  .00000000  00000+0  00000-0 0  9990
2 78697  45.0000 156.0000 0000000   0.0000 336.0000 13.29142335    16
CTC2_L_00353014-04
1 78698U 26073VD  26070.40846065  .00000000  00000+0  00000-0 0  9993
2 78698  45.0000 156.0000 0000000   0.0000  66.0000 13.29142335    17
CTC2_L_00353015-01
1 78699U 23831KU  26070.40846065  .00000000  00000+0  00000-0 0  9993
2 78699  45.0000 168.0000 0000000   0.0000 168.0000 13.29142335    14
CTC2_L_00353015-02
1 78700U 24315ZR  26070.40846065  .00000000  00000+0  00000-0 0  9994
2 78700  45.0000 168.0000 0000000   0.0000 258.0000 13.29142335    17
CTC2_L_00353015-03
1 78701U 24310FC  26070.40846065  .00000000  00000+0  00000-0 0  9990
2 78701  45.0000 168.0000 0000000   0.0000 348.0000 13.29142335    18
CTC2_L_00353015-04
1 78702U 25263PP  26070.40846065  .00000000  00000+0  00000-0 0  9999
2 78702  45.0000 168.0000 0000000   0.0000  78.0000 13.29142335    19
CTC2_L_00353016-01
1 78703U 26827QL  26070.40846065  .00000000  00000+0  00000-0 0  9997
2 78703  45.0000 180.0000 0000000   0.0000 180.0000 13.29142335    18
CTC2_L_00353016-02
1 78704U 22071GJ  26070.40846065  .00000000  00000+0  00000-0 0  9995
2 78704  45.0000 180.0000 0000000   0.0000 270.0000 13.29142335    19
